43929,IRIDIUM 171,2019,100.4,860.0,+,86.4,Active,1,LEO,USA,USA,Commercial/Government,Communications,Falcon,1 43929U 19002H   25063.40989558  .00000252  00000+0  83003-4 0  9999,2 43929  86.4043 190.1379 0001678  88.4729 271.6659 14.34217114321622,14.34217114,0.0001678,LEO
43930,IRIDIUM 170,2019,97.81,860.0,+,86.62,Active,1,LEO,USA,USA,Commercial/Government,Communications,Falcon,1 43930U 19002J   25063.37240239  .00002037  00000+0  31913-3 0  9998,2 43930  86.6160 189.9275 0002384  84.2731 275.8758 14.72240834330138,14.72240834,0.0002384,LEO
43931,IRIDIUM 167,2019,100.4,860.0,+,86.4,Active,1,LEO,USA,USA,Commercial/Government,Communications,Falcon,1 43931U 19002K   25063.89192406  .00000029  00000+0  32585-5 0  9995,2 43931  86.4036 189.7015 0002132  85.0970 275.0469 14.34213526321692,14.34213526,0.0002132,LEO
56726,IRIDIUM 181,2023,99.77,-1.0,+,86.45,Active,0,LEO,USA,USA,Unknown,Unknown,Unknown,1 56726U 23068S   25063.46916098  .00000259  00000+0  71068-4 0  9995,2 56726  86.4455 252.9705 0001841  77.3085 282.8321 14.43308198 94688,14.43308198,0.0001841,LEO
56727,IRIDIUM 177,2023,97.28,-1.0,+,86.2,Active,0,LEO,USA,USA,Unknown,Unknown,Unknown,1 56727U 23068T   25063.82943693  .00002105  00000+0  27360-3 0  9994,2 56727  86.2027 191.6158 0002196  86.5417 273.6055 14.80225208 96931,14.80225208,0.0002196,LEO
56728,IRIDIUM 174,2023,97.28,-1.0,+,86.2,Active,0,LEO,USA,USA,Unknown,Unknown,Unknown,1 56728U 23068U   25063.82400600  .00001942  00000+0  25210-3 0  9991,2 56728  86.2031 191.7423 0001596  94.9005 265.2399 14.80224334 96939,14.80224334,0.0001596,LEO
56729,IRIDIUM 178,2023,97.28,-1.0,+,86.58,Active,0,LEO,USA,USA,Unknown,Unknown,Unknown,1 56729U 23068V   25063.81857154  .00001169  00000+0  15047-3 0  9999,2 56729  86.5783 221.5148 0001199 100.5065 259.6292 14.80225177 96937,14.80225177,0.0001199,LEO
56730,IRIDIUM 179,2023,97.28,-1.0,+,86.68,Active,0,LEO,USA,USA,Unknown,Unknown,Unknown,1 56730U 23068W   25063.47511734  .00001114  00000+0  14310-3 0  9996,2 56730  86.6774 229.0680 0002008  96.8137 263.3313 14.80246600 96885,14.802466,0.0002008,LEO
